 2013  113 2123 28.4 L -20.150 -69.397 81.1  GUC 17 0.3                        1
 GAP= 86        0.94       1.5     3.3  3.5  0.3589E+00  0.2039E+01  0.1877E+01E
 evento1                                                                       6
 STAT SP IPHASW D HRMM SECON CODA AMPLIT PERI AZIMU VELO AIN AR TRES W  DIS CAZ7
 MAM1 HZ IP       2123 40.43                             175    0.2710 6.94 289 
 MAM1 HE IS       2123 49.68                             175    0.6010 6.94 289 
 PB08 HZ IP       2123 41.03                             161   -0.4110 25.5  88 
 PB08 HE IS       2123 51.23                             161   -0.1010 25.5  88 
 APAC HZ IP       2123 41.48                             154    0.1510 36.5 360 
 APAC HE IS       2123 50.62                             154   -0.5210 36.5 360 
 PICL HZ IP       2123 41.85                             150    0.3110 41.3 160 
 PICL HN IS       2123 51.05                             150   -0.4710 41.3 160 
 PB11 HZ IP       2123 42.43                             145    0.0610 50.9 328 
 PB11 HE IS       2123 53.18                             145    0.2110 50.9 328 
 SOG1 HZ IP       2123 42.98                             141    0.2610 58.0 336 
 SOG1 HE IS       2123 53.46                             141   -0.1310 58.0 336 
 PINT HZ IP       2123 43.58                             136    0.1210 67.5 180 
 PINT HN IS       2123 54.81                             136   -0.0710 67.5 180 
 SOG2 HZ IP       2123 44.06                             136    0.2810 68.7   2 
 SOG2 HN IS       2123 55.75                             136    0.2910 68.7   2 
 UNAP HZ IP       2123 44.41                             131    0.1210 78.3 263 
 UNAP HE IS       2123 56.50                             131    0.1510 78.3 263 
 PATA HZ IP       2123 45.10                             127   -0.1310 86.8 226 
 PATA HN IS       2123 58.68                             127    0.6710 86.8 226 
 PSGCXHZ IP       2123 46.37                             123   -0.1710 97.6 309 
 PSGCXHE IS       2123 59.56                             123   -0.7510 97.6 309 
 PB01 HZ IP       2123 46.44                             123   -0.2610 99.3 185 
 PB01 HE IS       2124  0.36                             123   -0.2310 99.3 185 
 MNMCXHZ IP       2123 48.54                             118   -0.1210  115 350 
 MNMCXHE IS       2124  4.09                             118    0.0510  115 350 
 CHOM HZ IP       2123 49.37                             116    0.2810  122 211 
 CHOM HN IS       2124  3.89                             116   -0.9210  122 211 
 PB02 HZ IP       2123 51.09                             112   -0.1610  140 202 
 PB02 HN IS       2124  8.99                             112    0.3910  140 202 
 PB07 HZ IP       2123 56.34                             106   -0.1210  182 196 
 PB07 HE IS       2124 18.02                             106    0.2510  182 196 
 PB09 HZ IP       2123 56.64                             106    0.0410  183 175 
 PB09 HN IS       2124 18.08                             106    0.0610  183 175 
                                                                                
