 2013  113 2122 16.0 L                                                         1
 evento1                                                                       6
 STAT SP IPHASW D HRMM SECON CODA AMPLIT PERI AZIMU VELO AIN AR TRES W  DIS CAZ7
 PB11 HZ IP       2123 42.43                                                    
 APAC HZ IP       2123 41.48                                                    
 APAC HE IS       2123 50.62                                                    
 PB02 HZ IP       2123 51.09                                                    
 PB07 HZ IP       2123 56.34                                                    
 PB08 HZ IP       2123 41.03                                                    
 PICL HZ IP       2123 41.85                                                    
 SOG1 HZ IP       2123 42.98                                                    
 UNAP HZ IP       2123 44.41                                                    
 CHOM HZ IP       2123 49.37                                                    
 CHOM HN IS       2124  3.89                                                    
 PATA HZ IP       2123 45.10                                                    
 PB01 HZ IP       2123 46.44                                                    
 PB02 HN IS       2124  8.99                                                    
 PB07 HE IS       2124 18.02                                                    
 PB11 HE IS       2123 53.18                                                    
 PICL HN IS       2123 51.05                                                    
 PINT HZ IP       2123 43.58                                                    
 SOG2 HZ IP       2123 44.06                                                    
 PSGCXHZ IP       2123 46.37                                                    
 MNMCXHZ IP       2123 48.54                                                    
 MNMCXHE IS       2124  4.09                                                    
 PB09 HZ IP       2123 56.64                                                    
 PB09 HN IS       2124 18.08                                                    
 MAM1 HZ IP       2123 40.43                                                    
 MAM1 HE IS       2123 49.68                                                    
 PATA HN IS       2123 58.68                                                    
 PB01 HE IS       2124  0.36                                                    
 PB08 HE IS       2123 51.23                                                    
 PINT HN IS       2123 54.81                                                    
 PSGCXHE IS       2123 59.56                                                    
 SOG1 HE IS       2123 53.46                                                    
 SOG2 HN IS       2123 55.75                                                    
 UNAP HE IS       2123 56.50                                                    
                                                                                
