 2012 1216 2039 25.9 L -19.847 -69.387106.4  GUC 18 0.4                        1
 GAP= 93        1.03       2.2     4.1  3.7  0.1825E+00  0.1275E+01  0.3526E+01E
 evento2                                                                       6
 STAT SP IPHASW D HRMM SECON CODA AMPLIT PERI AZIMU VELO AIN AR TRES W  DIS CAZ7
 APAC HZ IP       2039 41.07                             178    0.1310 3.30 336 
 APAC HE IS       2039 51.92                             178   -0.4510 3.30 336 
 GO01 BZ IP       2039 41.56                             165   -0.6810 27.7  50 
 GO01 BN IS       2039 54.08                             165   -0.5910 27.7  50 
 PB11 HZ IP       2039 41.62                             163    0.0410 29.7 289 
 PB11 HN IS       2039 53.76                             163    0.2610 29.7 289 
 SOG1 HZ IP       2039 41.59                             162    0.1510 31.3 309 
 SOG1 HN IS       2039 53.49                             162    0.2310 31.3 309 
 MAM1 HZ IP       2039 42.02                             162    0.5710 32.2 194 
 MAM1 HN IS       2039 52.79                             162   -0.4810 32.2 194 
 SOG2 HZ IP       2039 42.04                             161    0.2610 35.1   1 
 SOG2 HE IS       2039 54.11                             161    0.2610 35.1   1 
 PB08 HZ IP       2039 42.43                             158   -0.1610 40.7 143 
 PB08 HN IS       2039 55.33                             158    0.0510 40.7 143 
 PICL HZ IP       2039 44.39                             143    0.4410 73.5 170 
 PICL HE IS       2039 58.01                             143    0.3410 73.5 170 
 PSGCXHZ IP       2039 44.54                             139   -0.1310 81.9 290 
 PSGCXHN IS       2039 58.84                             139   -0.0910 81.9 290 
 MNMCXHZ IP       2039 44.76                             139   -0.2010 82.2 345 
 MNMCXHE IS       2039 59.21                             139   -0.2410 82.2 345 
 UNAP HZ IP       2039 45.50                             136    0.4510 89.9 241 
 UNAP HN IS       2039 59.98                             136    0.3710 89.9 241 
 PINT HZ IP       2039 46.81                             133    0.6010  101 181 
 PINT HE IS       2040  2.53                             133    0.8810  101 181 
 PATA HZ IP       2039 47.42                             129    0.1110  113 214 
 PATA HN IS       2040  3.33                             129   -0.2710  113 214 
 PB01 HZ IP       2039 49.56                             124    0.0810  133 184 
 PB01 HN IS       2040  7.57                             124    0.1710  133 184 
 CHOM HZ IP       2039 51.60                             120    0.1610  152 205 
 CHOM HE IS       2040 10.10                             120   -0.7610  152 205 
 PB02 HZ IP       2039 53.72                             117   -0.0110  171 198 
 PB02 HE IS       2040 14.62                             117   -0.2710  171 198 
 PB07 HZ IP       2039 58.48                             111   -0.4010  214 194 
 PB07 HE IS       2040 23.54                             111   -0.4110  214 194 
 PB09 HZ IP       2039 58.86                             111   -0.2310  216 176 
 PB09 HN IS       2040 24.05                             111   -0.2810  216 176 
                                                                                
