 2012 1216 2038 19.6 L                                                         1
 evento2                                                                       6
 STAT SP IPHASW D HRMM SECON CODA AMPLIT PERI AZIMU VELO AIN AR TRES W  DIS CAZ7
 GO01 BZ IP       2039 41.56                                                    
 MAM1 HZ IP       2039 42.02                                                    
 MNMCXHZ IP       2039 44.76                                                    
 PB01 HZ IP       2039 49.56                                                    
 PB01 HN IS       2040  7.57                                                    
 PB02 HZ IP       2039 53.72                                                    
 PB08 HZ IP       2039 42.43                                                    
 PB07 HZ IP       2039 58.48                                                    
 PB09 HZ IP       2039 58.86                                                    
 PB11 HZ IP       2039 41.62                                                    
 PINT HZ IP       2039 46.81                                                    
 PSGCXHZ IP       2039 44.54                                                    
 SOG1 HZ IP       2039 41.59                                                    
 APAC HZ IP       2039 41.07                                                    
 APAC HE IS       2039 51.92                                                    
 CHOM HZ IP       2039 51.60                                                    
 CHOM HE IS       2040 10.10                                                    
 GO01 BN IS       2039 54.08                                                    
 PATA HZ IP       2039 47.42                                                    
 PATA HN IS       2040  3.33                                                    
 PB07 HE IS       2040 23.54                                                    
 PB08 HN IS       2039 55.33                                                    
 PB09 HN IS       2040 24.05                                                    
 PB11 HN IS       2039 53.76                                                    
 PSGCXHN IS       2039 58.84                                                    
 SOG1 HN IS       2039 53.49                                                    
 SOG2 HE IS       2039 54.11                                                    
 SOG2 HZ IP       2039 42.04                                                    
 MAM1 HN IS       2039 52.79                                                    
 MNMCXHE IS       2039 59.21                                                    
 PB02 HE IS       2040 14.62                                                    
 PICL HE IS       2039 58.01                                                    
 PICL HZ IP       2039 44.39                                                    
 PINT HE IS       2040  2.53                                                    
 UNAP HZ IP       2039 45.50                                                    
 UNAP HN IS       2039 59.98                                                    
                                                                                
